INTELSAT 902 (IS-902)   
1 26900U 01039A   26160.18030708 -.00000268  00000+0  00000+0 0  9997
2 26900   6.0961  71.8814 0004435   4.2713 196.2171  1.00272588 90619
INTELSAT 904 (IS-904)   
1 27380U 02007A   26160.14558604 -.00000210  00000+0  00000+0 0  9999
2 27380   6.8992  69.2795 0006729   0.8489 208.3114  1.00272942 51683
DIRECTV 5 (TEMPO 1)     
1 27426U 02023A   26159.62666436 -.00000042  00000+0  00000+0 0  9995
2 27426   4.8550  75.4161 0003365  12.2530 284.8416  1.00271594 88030
INTELSAT 905 (IS-905)   
1 27438U 02027A   26159.60380081  .00000109  00000+0  00000+0 0  9992
2 27438   6.7311  69.9025 0003954  14.5648 252.6814  1.00269870 51270
GALAXY 3C (G-3C)        
1 27445U 02030A   26159.89525462 -.00000136  00000+0  00000+0 0  9990
2 27445   3.7087  78.0852 0001786  32.4950  14.1421  1.00271734 46417
INTELSAT 906 (IS-906)   
1 27513U 02041A   26160.03065792  .00000029  00000+0  00000+0 0  9991
2 27513   5.7831  73.0205 0004651 358.8696 260.6878  1.00271266 86941
GALAXY 13 (HORIZONS-1)  
1 27954U 03044A   26160.09830476  .00000149  00000+0  00000+0 0  9992
2 27954   1.3993  83.9575 0002103 350.0984  68.8041  1.00273590 46493
INTELSAT 10-02          
1 28358U 04022A   26160.05649573  .00000005  00000+0  00000+0 0  9991
2 28358   0.0151 336.1514 0000525 195.6343 104.9809  1.00269264 80471
DIRECTV 8               
1 28659U 05019A   26160.10437145  .00000018  00000+0  00000+0 0  9992
2 28659   0.0178   9.8409 0002949  71.8033  94.3671  1.00271609 76991
GALAXY 28 (G-28)        
1 28702U 05022A   26160.14558604 -.00000184  00000+0  00000+0 0  9998
2 28702   3.2789  79.0295 0002845 354.6455 209.1556  1.00272331 51893
GALAXY 16 (G-16)        
1 29236U 06023A   26159.96578213 -.00000110  00000+0  00000+0 0  9998
2 29236   0.0068  73.1757 0002649   5.4425  67.4153  1.00271613 72892
DIRECTV 9S              
1 29494U 06043A   26160.03660946 -.00000097  00000+0  00000+0 0  9995
2 29494   2.3987  80.9998 0005016   7.2740  81.1393  1.00271385 51305
GALAXY 17 (G-17)        
1 31307U 07016B   26160.11103044 -.00000190  00000+0  00000+0 0  9996
2 31307   2.9507  80.0018 0004836  16.3760 116.0952  1.00271422 69727
INTELSAT 11 (IS-11)     
1 32253U 07044B   26159.87496093 -.00000234  00000+0  00000+0 0  9997
2 32253   3.5428  78.7695 0001902  83.6702 212.1562  0.99053650 68368
HORIZONS-2              
1 32388U 07063B   26160.11337044 -.00000237  00000+0  00000+0 0  9999
2 32388   2.5803  80.7242 0003953 355.8603 147.9557  1.00271588 67730
DIRECTV 11              
1 32729U 08013A   26160.05357880 -.00000109  00000+0  00000+0 0  9995
2 32729   0.0372 171.9066 0000327 221.7276 143.9123  1.00271306 45514
GALAXY 18 (G-18)        
1 32951U 08024A   26160.10359145  .00000042  00000+0  00000+0 0  9991
2 32951   0.0155 301.9917 0003167 147.7488  82.0387  1.00272449 45779
INTELSAT 25 (IS-25)     
1 33153U 08034A   26159.87418093 -.00000246  00000+0  00000+0 0  9994
2 33153   2.6860  80.4286 0001904  35.5606 254.5892  0.99020453 65600
GALAXY 19 (G-19)        
1 33376U 08045A   26160.05477478 -.00000122  00000+0  00000+0 0  9990
2 33376   0.0188 273.3735 0002720 164.3319 102.4621  1.00271006 64822
FM-5                    
1 35493U 09034A   26160.11094376 -.00000184  00000+0  00000+0 0  9998
2 35493   0.0204 286.8184 0000698  19.7917 264.6803  1.00272406 46568
INTELSAT 14 (IS-14)     
1 36097U 09064A   26160.15056811 -.00000257  00000+0  00000+0 0  9999
2 36097   0.0118 332.2062 0002763 122.5604 171.9768  1.00270508 60528
INTELSAT 15 (IS-15)     
1 36106U 09067A   26160.14481766 -.00000168  00000+0  00000+0 0  9994
2 36106   0.0168 342.1819 0002259  99.8208 312.8096  1.00271190 41145
DIRECTV 12              
1 36131U 09075A   26160.03634946 -.00000087  00000+0  00000+0 0  9999
2 36131   0.0373 128.7909 0000244 277.6801 121.3127  1.00271791 46472
INTELSAT 16 (IS-16)     
1 36397U 10006A   26160.11285044 -.00000228  00000+0  00000+0 0  9996
2 36397   0.0095 320.1180 0002142 136.5842 125.2266  1.00269871 59571
XM-5                    
1 37185U 10053A   26159.96257544 -.00000006  00000+0  00000+0 0  9993
2 37185   0.0671 272.7941 0002724 285.1463 290.7439  1.00270322 57403
INTELSAT 17 (IS-17)     
1 37238U 10065B   26160.14100433  .00000015  00000+0  00000+0 0  9990
2 37238   0.0058 122.7144 0002542 325.7921 285.7737  1.00272583 53163
INTELSAT 28 (IS-28)     
1 37392U 11016A   26160.14558604 -.00000208  00000+0  00000+0 0  9990
2 37392   1.7844  82.7223 0003804 358.4029 197.1085  1.00274365 53209
INTELSAT 18 (IS-18)     
1 37834U 11056A   26160.09223808  .00000070  00000+0  00000+0 0  9990
2 37834   0.0012 354.7032 0002068 100.6597  15.3233  1.00272262 53735
INTELSAT 22 (IS-22)     
1 38098U 12011A   26160.14221765 -.00000042  00000+0  00000+0 0  9991
2 38098   0.0264  67.7528 0001606   2.5980 310.4768  1.00273409  7107
INTELSAT 19 (IS-19)     
1 38356U 12030A   26159.87565426 -.00000040  00000+0  00000+0 0  9990
2 38356   0.0173 326.9027 0003067 118.4997 293.0976  1.00271979 50368
INTELSAT 20 (IS-20)     
1 38740U 12043A   26160.14152433 -.00000008  00000+0  00000+0 0  9997
2 38740   0.0047  79.1000 0001852  92.5528 205.3251  1.00274205 50665
